[{"OBJECT_NAME":"NVS-01 (IRNSS-1J)","OBJECT_ID":"2023-076A","EPOCH":"2026-03-15T05:39:51.371136","MEAN_MOTION":1.00268727,"ECCENTRICITY":0.00068318,"INCLINATION":2.3939,"RA_OF_ASC_NODE":248.2389,"ARG_OF_PERICENTER":47.7229,"MEAN_ANOMALY":91.3364,"EPHEMERIS_TYPE":0,"CLASSIFICATION_TYPE":"U","NORAD_CAT_ID":56759,"ELEMENT_SET_NO":999,"REV_AT_EPOCH":1017,"BSTAR":0,"MEAN_MOTION_DOT":-3.41e-6,"MEAN_MOTION_DDOT":0},{"OBJECT_NAME":"COSMOS 2569 (703K)","OBJECT_ID":"2023-114A","EPOCH":"2026-03-13T23:51:38.664000","MEAN_MOTION":2.13103986,"ECCENTRICITY":0.00129471,"INCLINATION":65.248,"RA_OF_ASC_NODE":75.8292,"ARG_OF_PERICENTER":292.2655,"MEAN_ANOMALY":67.635,"EPHEMERIS_TYPE":0,"CLASSIFICATION_TYPE":"U","NORAD_CAT_ID":57517,"ELEMENT_SET_NO":999,"REV_AT_EPOCH":2023,"BSTAR":0,"MEAN_MOTION_DOT":5.5e-7,"MEAN_MOTION_DDOT":0},{"OBJECT_NAME":"BEIDOU-3 M28 (C50)","OBJECT_ID":"2023-207A","EPOCH":"2026-03-13T17:17:53.810880","MEAN_MOTION":1.86229773,"ECCENTRICITY":0.00049774,"INCLINATION":55.6694,"RA_OF_ASC_NODE":65.5222,"ARG_OF_PERICENTER":305.9,"MEAN_ANOMALY":54.0758,"EPHEMERIS_TYPE":0,"CLASSIFICATION_TYPE":"U","NORAD_CAT_ID":58654,"ELEMENT_SET_NO":999,"REV_AT_EPOCH":1506,"BSTAR":0,"MEAN_MOTION_DOT":1.2e-7,"MEAN_MOTION_DDOT":0},{"OBJECT_NAME":"BEIDOU-3 M26 (C48)","OBJECT_ID":"2023-207B","EPOCH":"2026-03-14T14:12:42.465024","MEAN_MOTION":1.86229709,"ECCENTRICITY":0.00057135,"INCLINATION":55.6721,"RA_OF_ASC_NODE":65.4789,"ARG_OF_PERICENTER":291.4407,"MEAN_ANOMALY":68.5207,"EPHEMERIS_TYPE":0,"CLASSIFICATION_TYPE":"U","NORAD_CAT_ID":58655,"ELEMENT_SET_NO":999,"REV_AT_EPOCH":1506,"BSTAR":0,"MEAN_MOTION_DOT":1.6e-7,"MEAN_MOTION_DDOT":0},{"OBJECT_NAME":"GSAT0225 (GALILEO 29)","OBJECT_ID":"2024-079A","EPOCH":"2026-03-14T09:15:49.598208","MEAN_MOTION":1.70475013,"ECCENTRICITY":0.00028165,"INCLINATION":55.0556,"RA_OF_ASC_NODE":103.7282,"ARG_OF_PERICENTER":259.7008,"MEAN_ANOMALY":104.1588,"EPHEMERIS_TYPE":0,"CLASSIFICATION_TYPE":"U","NORAD_CAT_ID":59598,"ELEMENT_SET_NO":999,"REV_AT_EPOCH":1170,"BSTAR":0,"MEAN_MOTION_DOT":3.8e-7,"MEAN_MOTION_DDOT":0},{"OBJECT_NAME":"GSAT0227 (GALILEO 30)","OBJECT_ID":"2024-079C","EPOCH":"2026-03-13T09:21:41.311008","MEAN_MOTION":1.70474883,"ECCENTRICITY":3.637e-5,"INCLINATION":55.0508,"RA_OF_ASC_NODE":103.7545,"ARG_OF_PERICENTER":35.432,"MEAN_ANOMALY":324.6432,"EPHEMERIS_TYPE":0,"CLASSIFICATION_TYPE":"U","NORAD_CAT_ID":59600,"ELEMENT_SET_NO":999,"REV_AT_EPOCH":1173,"BSTAR":0,"MEAN_MOTION_DOT":3.1e-7,"MEAN_MOTION_DDOT":0},{"OBJECT_NAME":"GSAT0232 (GALILEO 32)","OBJECT_ID":"2024-167A","EPOCH":"2026-02-17T15:52:34.088160","MEAN_MOTION":1.70443939,"ECCENTRICITY":0.00036004,"INCLINATION":55.2225,"RA_OF_ASC_NODE":224.5881,"ARG_OF_PERICENTER":296.6314,"MEAN_ANOMALY":116.1306,"EPHEMERIS_TYPE":0,"CLASSIFICATION_TYPE":"U","NORAD_CAT_ID":61182,"ELEMENT_SET_NO":999,"REV_AT_EPOCH":826,"BSTAR":0,"MEAN_MOTION_DOT":6.9e-7,"MEAN_MOTION_DDOT":0},{"OBJECT_NAME":"GSAT0226 (GALILEO 31)","OBJECT_ID":"2024-167B","EPOCH":"2026-03-13T18:37:21.340416","MEAN_MOTION":1.70474359,"ECCENTRICITY":0.00015841,"INCLINATION":55.2155,"RA_OF_ASC_NODE":223.9355,"ARG_OF_PERICENTER":137.4612,"MEAN_ANOMALY":46.3182,"EPHEMERIS_TYPE":0,"CLASSIFICATION_TYPE":"U","NORAD_CAT_ID":61183,"ELEMENT_SET_NO":999,"REV_AT_EPOCH":922,"BSTAR":0,"MEAN_MOTION_DOT":3.5e-7,"MEAN_MOTION_DDOT":0},{"OBJECT_NAME":"BEIDOU-3 M25 (C47)","OBJECT_ID":"2024-168B","EPOCH":"2026-03-15T04:01:21.866016","MEAN_MOTION":1.86230237,"ECCENTRICITY":0.00041307,"INCLINATION":54.5564,"RA_OF_ASC_NODE":305.5111,"ARG_OF_PERICENTER":319.4254,"MEAN_ANOMALY":183.3874,"EPHEMERIS_TYPE":0,"CLASSIFICATION_TYPE":"U","NORAD_CAT_ID":61186,"ELEMENT_SET_NO":999,"REV_AT_EPOCH":1003,"BSTAR":0,"MEAN_MOTION_DOT":-1.8e-7,"MEAN_MOTION_DDOT":0},{"OBJECT_NAME":"BEIDOU-3 M27 (C49)","OBJECT_ID":"2024-168C","EPOCH":"2026-03-13T09:59:38.522976","MEAN_MOTION":1.86230457,"ECCENTRICITY":0.00029517,"INCLINATION":54.5535,"RA_OF_ASC_NODE":305.5552,"ARG_OF_PERICENTER":22.0693,"MEAN_ANOMALY":161.6517,"EPHEMERIS_TYPE":0,"CLASSIFICATION_TYPE":"U","NORAD_CAT_ID":61187,"ELEMENT_SET_NO":999,"REV_AT_EPOCH":747,"BSTAR":0,"MEAN_MOTION_DOT":-2.7e-7,"MEAN_MOTION_DDOT":0},{"OBJECT_NAME":"GPS BIII-7  (PRN 01)","OBJECT_ID":"2024-242A","EPOCH":"2026-03-13T08:46:38.565696","MEAN_MOTION":2.00570015,"ECCENTRICITY":0.00160127,"INCLINATION":54.8883,"RA_OF_ASC_NODE":338.0689,"ARG_OF_PERICENTER":357.5685,"MEAN_ANOMALY":181.176,"EPHEMERIS_TYPE":0,"CLASSIFICATION_TYPE":"U","NORAD_CAT_ID":62339,"ELEMENT_SET_NO":999,"REV_AT_EPOCH":933,"BSTAR":0,"MEAN_MOTION_DOT":-8.4e-7,"MEAN_MOTION_DDOT":0},{"OBJECT_NAME":"NVS-02 (IRNSS-1K)","OBJECT_ID":"2025-020A","EPOCH":"2026-03-14T21:12:41.892480","MEAN_MOTION":2.17745063,"ECCENTRICITY":0.73498294,"INCLINATION":20.8319,"RA_OF_ASC_NODE":293.8522,"ARG_OF_PERICENTER":86.6883,"MEAN_ANOMALY":346.7214,"EPHEMERIS_TYPE":0,"CLASSIFICATION_TYPE":"U","NORAD_CAT_ID":62850,"ELEMENT_SET_NO":999,"REV_AT_EPOCH":892,"BSTAR":0.00065733953,"MEAN_MOTION_DOT":7.59e-6,"MEAN_MOTION_DDOT":0},{"OBJECT_NAME":"QZS-6 (QZSS/PRN 200)","OBJECT_ID":"2025-023A","EPOCH":"2026-03-15T02:03:12.148128","MEAN_MOTION":1.00274709,"ECCENTRICITY":0.00022045,"INCLINATION":0.0202,"RA_OF_ASC_NODE":100.9048,"ARG_OF_PERICENTER":261.7048,"MEAN_ANOMALY":291.3489,"EPHEMERIS_TYPE":0,"CLASSIFICATION_TYPE":"U","NORAD_CAT_ID":62876,"ELEMENT_SET_NO":999,"REV_AT_EPOCH":401,"BSTAR":0,"MEAN_MOTION_DOT":-2.34e-6,"MEAN_MOTION_DDOT":0},{"OBJECT_NAME":"COSMOS 2584 (704K)","OBJECT_ID":"2025-042A","EPOCH":"2026-03-09T15:47:08.930400","MEAN_MOTION":2.13103483,"ECCENTRICITY":0.000776,"INCLINATION":65.0271,"RA_OF_ASC_NODE":76.1843,"ARG_OF_PERICENTER":237.191,"MEAN_ANOMALY":122.7645,"EPHEMERIS_TYPE":0,"CLASSIFICATION_TYPE":"U","NORAD_CAT_ID":63130,"ELEMENT_SET_NO":999,"REV_AT_EPOCH":792,"BSTAR":0,"MEAN_MOTION_DOT":1.3e-7,"MEAN_MOTION_DDOT":0},{"OBJECT_NAME":"GPS BIII-8  (PRN 21)","OBJECT_ID":"2025-116A","EPOCH":"2026-03-14T14:32:36.898368","MEAN_MOTION":2.00552626,"ECCENTRICITY":0.00085957,"INCLINATION":55.1746,"RA_OF_ASC_NODE":34.937,"ARG_OF_PERICENTER":328.4748,"MEAN_ANOMALY":210.8678,"EPHEMERIS_TYPE":0,"CLASSIFICATION_TYPE":"U","NORAD_CAT_ID":64202,"ELEMENT_SET_NO":999,"REV_AT_EPOCH":597,"BSTAR":0,"MEAN_MOTION_DOT":-4.8e-7,"MEAN_MOTION_DDOT":0},{"OBJECT_NAME":"COSMOS 2596 (708K)","OBJECT_ID":"2025-206B","EPOCH":"2026-03-15T07:26:02.620320","MEAN_MOTION":2.1310041,"ECCENTRICITY":0.00127085,"INCLINATION":64.6879,"RA_OF_ASC_NODE":318.2563,"ARG_OF_PERICENTER":316.5107,"MEAN_ANOMALY":176.9222,"EPHEMERIS_TYPE":0,"CLASSIFICATION_TYPE":"U","NORAD_CAT_ID":65590,"ELEMENT_SET_NO":999,"REV_AT_EPOCH":391,"BSTAR":0,"MEAN_MOTION_DOT":-2.0e-7,"MEAN_MOTION_DDOT":0},{"OBJECT_NAME":"GSAT0234 (GALILEO 34)","OBJECT_ID":"2025-302C","EPOCH":"2026-03-15T02:09:30.726144","MEAN_MOTION":1.70474988,"ECCENTRICITY":0.00027706,"INCLINATION":54.2713,"RA_OF_ASC_NODE":104.8109,"ARG_OF_PERICENTER":226.2129,"MEAN_ANOMALY":140.3863,"EPHEMERIS_TYPE":0,"CLASSIFICATION_TYPE":"U","NORAD_CAT_ID":67162,"ELEMENT_SET_NO":999,"REV_AT_EPOCH":157,"BSTAR":0,"MEAN_MOTION_DOT":4.1e-7,"MEAN_MOTION_DDOT":0}]
